start=new Date('2022-09-11T00:00:00.000Z').valueOf();
sats=[{"GP_ID":"212272284","ARG_OF_PERICENTER":"65.9003","MEAN_MOTION_DDOT":"0.0000000000000","LAUNCH_DATE":"2022-05-14","TLE_LINE2":"2 52636  53.2159 236.2726 0001598  65.9003 271.9473 15.08821152  1303","TIME_SYSTEM":"UTC","REF_FRAME":"TEME","CLASSIFICATION_TYPE":"U","OBJECT_ID":"2022-052AQ","SITE":"AFETR","APOAPSIS":"540.908","ELEMENT_SET_NO":"999","DECAY_DATE":null,"OBJECT_TYPE":"PAYLOAD","INCLINATION":"53.2159","MEAN_MOTION_DOT":"0.00038417","EPHEMERIS_TYPE":"0","ECCENTRICITY":"0.00015980","RCS_SIZE":"LARGE","MEAN_ELEMENT_THEORY":"SGP4","SEMIMAJOR_AXIS":"6917.938","EPOCH":"2022-09-10T22:00:00.999936","FILE":"3567798","PERIAPSIS":"538.698","MEAN_MOTION":"15.08821152","OBJECT_NAME":"STARLINK-3967","RA_OF_ASC_NODE":"236.2726","MEAN_ANOMALY":"271.9473","COUNTRY_CODE":"US","NORAD_CAT_ID":"52636","CENTER_NAME":"EARTH","TLE_LINE1":"1 52636U 22052AQ  22253.91667824  .00038417  00000-0  24200-2 0  9993","REV_AT_EPOCH":"130","PERIOD":"95.439","BSTAR":"0.00242000000000"},{"FILE":"3567798","PERIAPSIS":"538.635","EPOCH":"2022-09-10T22:00:00.999936","SEMIMAJOR_AXIS":"6917.941","ECCENTRICITY":"0.00016920","RCS_SIZE":"LARGE","MEAN_ELEMENT_THEORY":"SGP4","EPHEMERIS_TYPE":"0","TLE_LINE1":"1 52637U 22052AR  22253.91667824  .00027036  00000-0  17112-2 0  9993","REV_AT_EPOCH":"130","CENTER_NAME":"EARTH","BSTAR":"0.00171120000000","PERIOD":"95.439","NORAD_CAT_ID":"52637","MEAN_MOTION":"15.08820261","COUNTRY_CODE":"US","MEAN_ANOMALY":"78.0129","OBJECT_NAME":"STARLINK-3961","RA_OF_ASC_NODE":"226.2817","CLASSIFICATION_TYPE":"U","OBJECT_ID":"2022-052AR","SITE":"AFETR","REF_FRAME":"TEME","TLE_LINE2":"2 52637  53.2157 226.2817 0001692  54.8735  78.0129 15.08820261  1300","TIME_SYSTEM":"UTC","MEAN_MOTION_DDOT":"0.0000000000000","ARG_OF_PERICENTER":"54.8735","GP_ID":"212272024","LAUNCH_DATE":"2022-05-14","MEAN_MOTION_DOT":"0.00027036","INCLINATION":"53.2157","OBJECT_TYPE":"PAYLOAD","DECAY_DATE":null,"ELEMENT_SET_NO":"999","APOAPSIS":"540.976"},{"COUNTRY_CODE":"US","MEAN_ANOMALY":"298.8282","OBJECT_NAME":"STARLINK-3941","RA_OF_ASC_NODE":"236.2722","MEAN_MOTION":"15.08821762","NORAD_CAT_ID":"52638","BSTAR":"0.00251460000000","PERIOD":"95.439","REV_AT_EPOCH":"130","TLE_LINE1":"1 52638U 22052AS  22253.91667824  .00039939  00000-0  25146-2 0  9995","CENTER_NAME":"EARTH","EPHEMERIS_TYPE":"0","RCS_SIZE":"LARGE","MEAN_ELEMENT_THEORY":"SGP4","ECCENTRICITY":"0.00014190","EPOCH":"2022-09-10T22:00:00.999936","SEMIMAJOR_AXIS":"6917.936","PERIAPSIS":"538.819","FILE":"3567798","ELEMENT_SET_NO":"999","APOAPSIS":"540.783","DECAY_DATE":null,"OBJECT_TYPE":"PAYLOAD","MEAN_MOTION_DOT":"0.00039939","INCLINATION":"53.2175","LAUNCH_DATE":"2022-05-14","MEAN_MOTION_DDOT":"0.0000000000000","ARG_OF_PERICENTER":"59.0291","GP_ID":"212271716","REF_FRAME":"TEME","TIME_SYSTEM":"UTC","TLE_LINE2":"2 52638  53.2175 236.2722 0001419  59.0291 298.8282 15.08821762  1307","OBJECT_ID":"2022-052AS","SITE":"AFETR","CLASSIFICATION_TYPE":"U"},{"GP_ID":"212272593","ARG_OF_PERICENTER":"47.9770","MEAN_MOTION_DDOT":"0.0000000000000","LAUNCH_DATE":"2022-05-14","TLE_LINE2":"2 52639  53.2144 226.2821 0002156  47.9770 144.8860 15.08849167  1301","TIME_SYSTEM":"UTC","REF_FRAME":"TEME","CLASSIFICATION_TYPE":"U","SITE":"AFETR","OBJECT_ID":"2022-052AT","APOAPSIS":"541.209","ELEMENT_SET_NO":"999","DECAY_DATE":null,"OBJECT_TYPE":"PAYLOAD","INCLINATION":"53.2144","MEAN_MOTION_DOT":"-0.00016629","EPHEMERIS_TYPE":"0","ECCENTRICITY":"0.00021560","MEAN_ELEMENT_THEORY":"SGP4","RCS_SIZE":"LARGE","SEMIMAJOR_AXIS":"6917.852","EPOCH":"2022-09-10T22:00:00.999936","FILE":"3567798","PERIAPSIS":"538.226","MEAN_MOTION":"15.08849167","RA_OF_ASC_NODE":"226.2821","OBJECT_NAME":"STARLINK-3968","MEAN_ANOMALY":"144.8860","COUNTRY_CODE":"US","NORAD_CAT_ID":"52639","CENTER_NAME":"EARTH","REV_AT_EPOCH":"130","TLE_LINE1":"1 52639U 22052AT  22253.91667824 -.00016629  00000-0 -10288-2 0  9990","PERIOD":"95.437","BSTAR":"-0.00102880000000"},{"MEAN_MOTION_DOT":"-0.00010173","INCLINATION":"53.2142","OBJECT_TYPE":"PAYLOAD","DECAY_DATE":null,"ELEMENT_SET_NO":"999","APOAPSIS":"540.920","SITE":"AFETR","OBJECT_ID":"2022-052AU","CLASSIFICATION_TYPE":"U","REF_FRAME":"TEME","TLE_LINE2":"2 52640  53.2142 226.2834 0001699  57.2120  50.4737 15.08840357  1306","TIME_SYSTEM":"UTC","LAUNCH_DATE":"2022-05-14","MEAN_MOTION_DDOT":"0.0000000000000","ARG_OF_PERICENTER":"57.2120","GP_ID":"212271870","PERIOD":"95.438","BSTAR":"-0.00062197000000","TLE_LINE1":"1 52640U 22052AU  22253.91667824 -.00010173  00000-0 -62197-3 0  9997","REV_AT_EPOCH":"130","CENTER_NAME":"EARTH","NORAD_CAT_ID":"52640","MEAN_ANOMALY":"50.4737","COUNTRY_CODE":"US","RA_OF_ASC_NODE":"226.2834","OBJECT_NAME":"STARLINK-3977","MEAN_MOTION":"15.08840357","PERIAPSIS":"538.569","FILE":"3567798","EPOCH":"2022-09-10T22:00:00.999936","SEMIMAJOR_AXIS":"6917.879","MEAN_ELEMENT_THEORY":"SGP4","RCS_SIZE":"LARGE","ECCENTRICITY":"0.00016990","EPHEMERIS_TYPE":"0"},{"ECCENTRICITY":"0.00021410","MEAN_ELEMENT_THEORY":"SGP4","RCS_SIZE":"LARGE","EPHEMERIS_TYPE":"0","FILE":"3567798","PERIAPSIS":"538.261","SEMIMAJOR_AXIS":"6917.877","EPOCH":"2022-09-10T22:00:00.999936","MEAN_MOTION":"15.08841122","RA_OF_ASC_NODE":"226.2828","OBJECT_NAME":"STARLINK-3991","COUNTRY_CODE":"US","MEAN_ANOMALY":"169.3379","CENTER_NAME":"EARTH","TLE_LINE1":"1 52641U 22052AV  22253.91667824 -.00007532  00000-0 -45557-3 0  9994","REV_AT_EPOCH":"130","BSTAR":"-0.00045557000000","PERIOD":"95.437","NORAD_CAT_ID":"52641","ARG_OF_PERICENTER":"43.5570","GP_ID":"212272438","MEAN_MOTION_DDOT":"0.0000000000000","LAUNCH_DATE":"2022-05-14","CLASSIFICATION_TYPE":"U","OBJECT_ID":"2022-052AV","SITE":"AFETR","TLE_LINE2":"2 52641  53.2153 226.2828 0002141  43.5570 169.3379 15.08841122  1305","TIME_SYSTEM":"UTC","REF_FRAME":"TEME","DECAY_DATE":null,"APOAPSIS":"541.223","ELEMENT_SET_NO":"999","INCLINATION":"53.2153","MEAN_MOTION_DOT":"-0.00007532","OBJECT_TYPE":"PAYLOAD"},{"EPOCH":"2022-09-10T22:00:00.999936","SEMIMAJOR_AXIS":"6917.870","FILE":"3567798","PERIAPSIS":"538.279","EPHEMERIS_TYPE":"0","ECCENTRICITY":"0.00021040","RCS_SIZE":"LARGE","MEAN_ELEMENT_THEORY":"SGP4","NORAD_CAT_ID":"52642","REV_AT_EPOCH":"130","TLE_LINE1":"1 52642U 22052AW  22253.91667824 -.00009809  00000-0 -59897-3 0  9996","CENTER_NAME":"EARTH","PERIOD":"95.437","BSTAR":"-0.00059897000000","MEAN_MOTION":"15.08843433","COUNTRY_CODE":"US","MEAN_ANOMALY":"101.0956","RA_OF_ASC_NODE":"226.2821","OBJECT_NAME":"STARLINK-3971","REF_FRAME":"TEME","TLE_LINE2":"2 52642  53.2145 226.2821 0002104  51.7932 101.0956 15.08843433  1303","TIME_SYSTEM":"UTC","CLASSIFICATION_TYPE":"U","SITE":"AFETR","OBJECT_ID":"2022-052AW","MEAN_MOTION_DDOT":"0.0000000000000","GP_ID":"212272132","ARG_OF_PERICENTER":"51.7932","LAUNCH_DATE":"2022-05-14","OBJECT_TYPE":"PAYLOAD","MEAN_MOTION_DOT":"-0.00009809","INCLINATION":"53.2145","ELEMENT_SET_NO":"999","APOAPSIS":"541.190","DECAY_DATE":null},{"MEAN_MOTION":"15.08848397","MEAN_ANOMALY":"222.1502","COUNTRY_CODE":"US","RA_OF_ASC_NODE":"226.2714","OBJECT_NAME":"STARLINK-3963","NORAD_CAT_ID":"52643","TLE_LINE1":"1 52643U 22052AX  22253.91667824 -.00011336  00000-0 -69505-3 0  9992","REV_AT_EPOCH":"130","CENTER_NAME":"EARTH","BSTAR":"-0.00069505000000","PERIOD":"95.437","EPHEMERIS_TYPE":"0","ECCENTRICITY":"0.00020030","MEAN_ELEMENT_THEORY":"SGP4","RCS_SIZE":"LARGE","EPOCH":"2022-09-10T22:00:00.999936","SEMIMAJOR_AXIS":"6917.855","FILE":"3567798","PERIAPSIS":"538.334","ELEMENT_SET_NO":"999","APOAPSIS":"541.105","DECAY_DATE":null,"OBJECT_TYPE":"PAYLOAD","MEAN_MOTION_DOT":"-0.00011336","INCLINATION":"53.2169","MEAN_MOTION_DDOT":"0.0000000000000","ARG_OF_PERICENTER":"50.7191","GP_ID":"212272791","LAUNCH_DATE":"2022-05-14","REF_FRAME":"TEME","TLE_LINE2":"2 52643  53.2169 226.2714 0002003  50.7191 222.1502 15.08848397  1301","TIME_SYSTEM":"UTC","CLASSIFICATION_TYPE":"U","OBJECT_ID":"2022-052AX","SITE":"AFETR"},{"RCS_SIZE":"LARGE","MEAN_ELEMENT_THEORY":"SGP4","ECCENTRICITY":"0.00020490","EPHEMERIS_TYPE":"0","PERIAPSIS":"538.295","FILE":"3567798","EPOCH":"2022-09-10T22:00:00.999936","SEMIMAJOR_AXIS":"6917.848","COUNTRY_CODE":"US","MEAN_ANOMALY":"122.4297","RA_OF_ASC_NODE":"226.2826","OBJECT_NAME":"STARLINK-3985","MEAN_MOTION":"15.08850734","PERIOD":"95.437","BSTAR":"-0.00117490000000","TLE_LINE1":"1 52644U 22052AY  22253.91667824 -.00018944  00000-0 -11749-2 0  9991","REV_AT_EPOCH":"130","CENTER_NAME":"EARTH","NORAD_CAT_ID":"52644","LAUNCH_DATE":"2022-05-14","MEAN_MOTION_DDOT":"0.0000000000000","GP_ID":"212272285","ARG_OF_PERICENTER":"50.4211","OBJECT_ID":"2022-052AY","SITE":"AFETR","CLASSIFICATION_TYPE":"U","REF_FRAME":"TEME","TLE_LINE2":"2 52644  53.2158 226.2826 0002049  50.4211 122.4297 15.08850734  1305","TIME_SYSTEM":"UTC","DECAY_DATE":null,"ELEMENT_SET_NO":"999","APOAPSIS":"541.130","MEAN_MOTION_DOT":"-0.00018944","INCLINATION":"53.2158","OBJECT_TYPE":"PAYLOAD"},{"NORAD_CAT_ID":"52645","PERIOD":"95.439","BSTAR":"0.00198970000000","TLE_LINE1":"1 52645U 22052AZ  22253.91667824  .00031497  00000-0  19897-2 0  9990","REV_AT_EPOCH":"130","CENTER_NAME":"EARTH","MEAN_ANOMALY":"240.2393","COUNTRY_CODE":"US","RA_OF_ASC_NODE":"226.2731","OBJECT_NAME":"STARLINK-3973","MEAN_MOTION":"15.08813027","EPOCH":"2022-09-10T22:00:00.999936","SEMIMAJOR_AXIS":"6917.963","PERIAPSIS":"538.392","FILE":"3567798","EPHEMERIS_TYPE":"0","RCS_SIZE":"LARGE","MEAN_ELEMENT_THEORY":"SGP4","ECCENTRICITY":"0.00020760","OBJECT_TYPE":"PAYLOAD","MEAN_MOTION_DOT":"0.00031497","INCLINATION":"53.2170","ELEMENT_SET_NO":"999","APOAPSIS":"541.264","DECAY_DATE":null,"REF_FRAME":"TEME","TLE_LINE2":"2 52645  53.2170 226.2731 0002076  47.4212 240.2393 15.08813027  1302","TIME_SYSTEM":"UTC","OBJECT_ID":"2022-052AZ","SITE":"AFETR","CLASSIFICATION_TYPE":"U","LAUNCH_DATE":"2022-05-14","MEAN_MOTION_DDOT":"0.0000000000000","ARG_OF_PERICENTER":"47.4212","GP_ID":"212272025"}];
